{"fetched_at":"2026-07-08T17:59:25.198Z","source":"https://celestrak.org/NORAD/elements/gp.php?GROUP=oneweb&FORMAT=JSON","constellation":"oneweb","records":[{"OBJECT_NAME":"ONEWEB-0176","OBJECT_ID":"2021-031A","EPOCH":"2026-07-08T11:48:26.259840","CLASSIFICATION_TYPE":"U","MEAN_MOTION":13.14502528,"ECCENTRICITY":0.0002089,"INCLINATION":87.8969,"RA_OF_ASC_NODE":285.4547,"ARG_OF_PERICENTER":101.734,"MEAN_ANOMALY":258.4024,"EPHEMERIS_TYPE":0,"NORAD_CAT_ID":48210,"ELEMENT_SET_NO":999,"REV_AT_EPOCH":25111,"BSTAR":0.00037028,"MEAN_MOTION_DOT":0.0000015,"MEAN_MOTION_DDOT":0},{"OBJECT_NAME":"ONEWEB-0184","OBJECT_ID":"2021-031B","EPOCH":"2026-07-08T12:59:13.564608","CLASSIFICATION_TYPE":"U","MEAN_MOTION":13.1450278,"ECCENTRICITY":0.0002411,"INCLINATION":87.8978,"RA_OF_ASC_NODE":285.4461,"ARG_OF_PERICENTER":118.8081,"MEAN_ANOMALY":241.3291,"EPHEMERIS_TYPE":0,"NORAD_CAT_ID":48211,"ELEMENT_SET_NO":999,"REV_AT_EPOCH":25109,"BSTAR":-0.00010996,"MEAN_MOTION_DOT":-2.8e-7,"MEAN_MOTION_DDOT":0},{"OBJECT_NAME":"ONEWEB-0179","OBJECT_ID":"2021-031C","EPOCH":"2026-07-08T12:06:25.698240","CLASSIFICATION_TYPE":"U","MEAN_MOTION":14.2554521,"ECCENTRICITY":0.0220771,"INCLINATION":87.8993,"RA_OF_ASC_NODE":281.8427,"ARG_OF_PERICENTER":187.2176,"MEAN_ANOMALY":172.5825,"EPHEMERIS_TYPE":0,"NORAD_CAT_ID":48212,"ELEMENT_SET_NO":999,"REV_AT_EPOCH":25208,"BSTAR":0.000096529,"MEAN_MOTION_DOT":0.00000315,"MEAN_MOTION_DDOT":0},{"OBJECT_NAME":"ONEWEB-0180","OBJECT_ID":"2021-031D","EPOCH":"2026-07-08T13:03:48.103200","CLASSIFICATION_TYPE":"U","MEAN_MOTION":13.14503502,"ECCENTRICITY":0.0002429,"INCLINATION":87.8976,"RA_OF_ASC_NODE":285.4418,"ARG_OF_PERICENTER":101.2822,"MEAN_ANOMALY":258.858,"EPHEMERIS_TYPE":0,"NORAD_CAT_ID":48213,"ELEMENT_SET_NO":999,"REV_AT_EPOCH":25102,"BSTAR":0.000084842,"MEAN_MOTION_DOT":4.4e-7,"MEAN_MOTION_DDOT":0},{"OBJECT_NAME":"ONEWEB-0218","OBJECT_ID":"2021-031E","EPOCH":"2026-07-08T06:17:19.848192","CLASSIFICATION_TYPE":"U","MEAN_MOTION":13.14503609,"ECCENTRICITY":0.0002669,"INCLINATION":87.898,"RA_OF_ASC_NODE":285.498,"ARG_OF_PERICENTER":115.1451,"MEAN_ANOMALY":244.9955,"EPHEMERIS_TYPE":0,"NORAD_CAT_ID":48214,"ELEMENT_SET_NO":999,"REV_AT_EPOCH":25114,"BSTAR":0.00055404,"MEAN_MOTION_DOT":0.00000218,"MEAN_MOTION_DDOT":0},{"OBJECT_NAME":"ONEWEB-0209","OBJECT_ID":"2021-031F","EPOCH":"2026-07-07T19:03:41.995584","CLASSIFICATION_TYPE":"U","MEAN_MOTION":13.14503398,"ECCENTRICITY":0.0002249,"INCLINATION":87.8967,"RA_OF_ASC_NODE":285.6065,"ARG_OF_PERICENTER":96.9123,"MEAN_ANOMALY":263.2263,"EPHEMERIS_TYPE":0,"NORAD_CAT_ID":48215,"ELEMENT_SET_NO":999,"REV_AT_EPOCH":25108,"BSTAR":0.00058344,"MEAN_MOTION_DOT":0.00000229,"MEAN_MOTION_DDOT":0},{"OBJECT_NAME":"ONEWEB-0198","OBJECT_ID":"2021-031G","EPOCH":"2026-07-08T12:57:08.892000","CLASSIFICATION_TYPE":"U","MEAN_MOTION":13.14503038,"ECCENTRICITY":0.0002457,"INCLINATION":87.8961,"RA_OF_ASC_NODE":285.455,"ARG_OF_PERICENTER":103.7888,"MEAN_ANOMALY":256.3515,"EPHEMERIS_TYPE":0,"NORAD_CAT_ID":48216,"ELEMENT_SET_NO":999,"REV_AT_EPOCH":25129,"BSTAR":-0.00025149,"MEAN_MOTION_DOT":-8e-7,"MEAN_MOTION_DDOT":0},{"OBJECT_NAME":"ONEWEB-0189","OBJECT_ID":"2021-031H","EPOCH":"2026-07-08T05:56:46.622976","CLASSIFICATION_TYPE":"U","MEAN_MOTION":13.14502236,"ECCENTRICITY":0.0002343,"INCLINATION":87.8974,"RA_OF_ASC_NODE":285.5019,"ARG_OF_PERICENTER":103.8274,"MEAN_ANOMALY":256.3116,"EPHEMERIS_TYPE":0,"NORAD_CAT_ID":48217,"ELEMENT_SET_NO":999,"REV_AT_EPOCH":25099,"BSTAR":0.00048952,"MEAN_MOTION_DOT":0.00000194,"MEAN_MOTION_DDOT":0},{"OBJECT_NAME":"ONEWEB-0196","OBJECT_ID":"2021-031J","EPOCH":"2026-07-08T05:24:48.218976","CLASSIFICATION_TYPE":"U","MEAN_MOTION":13.1450233,"ECCENTRICITY":0.0002176,"INCLINATION":87.897,"RA_OF_ASC_NODE":285.5149,"ARG_OF_PERICENTER":100.1254,"MEAN_ANOMALY":260.0122,"EPHEMERIS_TYPE":0,"NORAD_CAT_ID":48218,"ELEMENT_SET_NO":999,"REV_AT_EPOCH":25099,"BSTAR":-0.00044632,"MEAN_MOTION_DOT":-0.00000153,"MEAN_MOTION_DDOT":0},{"OBJECT_NAME":"ONEWEB-0183","OBJECT_ID":"2021-031K","EPOCH":"2026-07-08T12:06:42.111648","CLASSIFICATION_TYPE":"U","MEAN_MOTION":13.14502226,"ECCENTRICITY":0.0002005,"INCLINATION":87.8971,"RA_OF_ASC_NODE":285.4572,"ARG_OF_PERICENTER":93.9331,"MEAN_ANOMALY":266.2028,"EPHEMERIS_TYPE":0,"NORAD_CAT_ID":48219,"ELEMENT_SET_NO":999,"REV_AT_EPOCH":25112,"BSTAR":0.00015682,"MEAN_MOTION_DOT":7.1e-7,"MEAN_MOTION_DDOT":0},{"OBJECT_NAME":"ONEWEB-0185","OBJECT_ID":"2021-031L","EPOCH":"2026-07-08T12:44:22.047072","CLASSIFICATION_TYPE":"U","MEAN_MOTION":13.14504137,"ECCENTRICITY":0.00023,"INCLINATION":87.8977,"RA_OF_ASC_NODE":285.4471,"ARG_OF_PERICENTER":91.4075,"MEAN_ANOMALY":268.7318,"EPHEMERIS_TYPE":0,"NORAD_CAT_ID":48220,"ELEMENT_SET_NO":999,"REV_AT_EPOCH":25105,"BSTAR":-0.00036985,"MEAN_MOTION_DOT":-0.00000124,"MEAN_MOTION_DDOT":0},{"OBJECT_NAME":"ONEWEB-0187","OBJECT_ID":"2021-031M","EPOCH":"2026-07-08T12:15:38.132064","CLASSIFICATION_TYPE":"U","MEAN_MOTION":13.14502814,"ECCENTRICITY":0.000221,"INCLINATION":87.8973,"RA_OF_ASC_NODE":285.465,"ARG_OF_PERICENTER":98.9896,"MEAN_ANOMALY":261.1484,"EPHEMERIS_TYPE":0,"NORAD_CAT_ID":48221,"ELEMENT_SET_NO":999,"REV_AT_EPOCH":25106,"BSTAR":-0.00011361,"MEAN_MOTION_DOT":-2.9e-7,"MEAN_MOTION_DDOT":0},{"OBJECT_NAME":"ONEWEB-0192","OBJECT_ID":"2021-031N","EPOCH":"2026-07-08T06:03:37.969056","CLASSIFICATION_TYPE":"U","MEAN_MOTION":13.14502803,"ECCENTRICITY":0.0002033,"INCLINATION":87.8976,"RA_OF_ASC_NODE":285.5063,"ARG_OF_PERICENTER":99.2691,"MEAN_ANOMALY":260.8669,"EPHEMERIS_TYPE":0,"NORAD_CAT_ID":48222,"ELEMENT_SET_NO":999,"REV_AT_EPOCH":25094,"BSTAR":0.00055874,"MEAN_MOTION_DOT":0.0000022,"MEAN_MOTION_DDOT":0},{"OBJECT_NAME":"ONEWEB-0219","OBJECT_ID":"2021-031P","EPOCH":"2026-07-08T05:33:55.512000","CLASSIFICATION_TYPE":"U","MEAN_MOTION":13.14503474,"ECCENTRICITY":0.0002253,"INCLINATION":87.898,"RA_OF_ASC_NODE":285.5033,"ARG_OF_PERICENTER":97.0277,"MEAN_ANOMALY":263.1108,"EPHEMERIS_TYPE":0,"NORAD_CAT_ID":48223,"ELEMENT_SET_NO":999,"REV_AT_EPOCH":25114,"BSTAR":-0.00020691,"MEAN_MOTION_DOT":-6.4e-7,"MEAN_MOTION_DDOT":0},{"OBJECT_NAME":"ONEWEB-0202","OBJECT_ID":"2021-031Q","EPOCH":"2026-07-08T12:24:58.805856","CLASSIFICATION_TYPE":"U","MEAN_MOTION":13.14502767,"ECCENTRICITY":0.000257,"INCLINATION":87.8977,"RA_OF_ASC_NODE":285.4597,"ARG_OF_PERICENTER":111.7004,"MEAN_ANOMALY":248.4399,"EPHEMERIS_TYPE":0,"NORAD_CAT_ID":48224,"ELEMENT_SET_NO":999,"REV_AT_EPOCH":25116,"BSTAR":-0.00034488,"MEAN_MOTION_DOT":-0.00000115,"MEAN_MOTION_DDOT":0},{"OBJECT_NAME":"ONEWEB-0204","OBJECT_ID":"2021-031R","EPOCH":"2026-07-08T05:55:36.411744","CLASSIFICATION_TYPE":"U","MEAN_MOTION":13.14499359,"ECCENTRICITY":0.0001875,"INCLINATION":87.8974,"RA_OF_ASC_NODE":285.5071,"ARG_OF_PERICENTER":86.7292,"MEAN_ANOMALY":273.4052,"EPHEMERIS_TYPE":0,"NORAD_CAT_ID":48225,"ELEMENT_SET_NO":999,"REV_AT_EPOCH":25102,"BSTAR":0.00047693,"MEAN_MOTION_DOT":0.0000019,"MEAN_MOTION_DDOT":0}]}
