ONEWEB-0176             
1 48210U 21031A   26189.49197060  .00000150  00000+0  37028-3 0  9992
2 48210  87.8969 285.4547 0002089 101.7340 258.4024 13.14502528251110
ONEWEB-0184             
1 48211U 21031B   26189.54112922 -.00000028  00000+0 -10996-3 0  9994
2 48211  87.8978 285.4461 0002411 118.8081 241.3291 13.14502780251090
ONEWEB-0179             
1 48212U 21031C   26189.50446410  .00000315  00000+0  96529-4 0  9997
2 48212  87.8993 281.8427 0220771 187.2176 172.5825 14.25545210252082
ONEWEB-0180             
1 48213U 21031D   26189.54430675  .00000044  00000+0  84842-4 0  9992
2 48213  87.8976 285.4418 0002429 101.2822 258.8580 13.14503502251020
ONEWEB-0218             
1 48214U 21031E   26189.26203528  .00000218  00000+0  55404-3 0  9991
2 48214  87.8980 285.4980 0002669 115.1451 244.9955 13.14503609251141
ONEWEB-0209             
1 48215U 21031F   26188.79423606  .00000229  00000+0  58344-3 0  9998
2 48215  87.8967 285.6065 0002249  96.9123 263.2263 13.14503398251083
ONEWEB-0198             
1 48216U 21031G   26189.53968625 -.00000080  00000+0 -25149-3 0  9991
2 48216  87.8961 285.4550 0002457 103.7888 256.3515 13.14503038251298
ONEWEB-0189             
1 48217U 21031H   26189.24776184  .00000194  00000+0  48952-3 0  9998
2 48217  87.8974 285.5019 0002343 103.8274 256.3116 13.14502236250990
ONEWEB-0196             
1 48218U 21031J   26189.22555809 -.00000153  00000+0 -44632-3 0  9994
2 48218  87.8970 285.5149 0002176 100.1254 260.0122 13.14502330250997
ONEWEB-0183             
1 48219U 21031K   26189.50465407  .00000071  00000+0  15682-3 0  9990
2 48219  87.8971 285.4572 0002005  93.9331 266.2028 13.14502226251127
ONEWEB-0185             
1 48220U 21031L   26189.53081073 -.00000124  00000+0 -36985-3 0  9998
2 48220  87.8977 285.4471 0002300  91.4075 268.7318 13.14504137251053
ONEWEB-0187             
1 48221U 21031M   26189.51085801 -.00000029  00000+0 -11361-3 0  9995
2 48221  87.8973 285.4650 0002210  98.9896 261.1484 13.14502814251064
ONEWEB-0192             
1 48222U 21031N   26189.25252279  .00000220  00000+0  55874-3 0  9990
2 48222  87.8976 285.5063 0002033  99.2691 260.8669 13.14502803250942
ONEWEB-0219             
1 48223U 21031P   26189.23189250 -.00000064  00000+0 -20691-3 0  9994
2 48223  87.8980 285.5033 0002253  97.0277 263.1108 13.14503474251147
ONEWEB-0202             
1 48224U 21031Q   26189.51734729 -.00000115  00000+0 -34488-3 0  9999
2 48224  87.8977 285.4597 0002570 111.7004 248.4399 13.14502767251166
ONEWEB-0204             
1 48225U 21031R   26189.24694921  .00000190  00000+0  47693-3 0  9992
2 48225  87.8974 285.5071 0001875  86.7292 273.4052 13.14499359251020
